H1 CPF 01  gfz 2021 08 15 12  7272 tandemx   
H2 1003001  6202 36605    2021 08 15 12 59 42 2021 08 20 00 00 42   120 1 1  0 0 0
H9
10 0 59444  35982.000000  0     594858.729  -2648902.974  -6338036.333
10 0 59444  36102.000000  0     108147.441  -1923098.398  -6620644.619
10 0 59444  36222.000000  0    -367368.078  -1155563.339  -6787755.240
10 0 59444  36342.000000  0    -822841.936   -359873.297  -6836495.885
10 0 59444  36462.000000  0   -1250020.519    449770.972  -6766030.446
10 0 59444  36582.000000  0   -1641388.619   1258790.292  -6577571.050
10 0 59444  36702.000000  0   -1990298.416   2052483.061  -6274359.331
10 0 59444  36822.000000  0   -2291080.624   2816285.729  -5861617.429
10 0 59444  36942.000000  0   -2539137.011   3536036.730  -5346468.060
10 0 59444  37062.000000  0   -2731011.727   4198238.322  -4737823.148
10 0 59444  37182.000000  0   -2864441.318   4790313.014  -4046240.806
10 0 59444  37302.000000  0   -2938380.536   5300847.760  -3283750.681
10 0 59444  37422.000000  0   -2953003.232   5719820.129  -2463652.466
10 0 59444  37542.000000  0   -2909679.661   6038805.019  -1600289.637
10 0 59444  37662.000000  0   -2810928.094   6251153.920   -708798.042
10 0 59444  37782.000000  0   -2660342.602   6352139.804    195161.788
10 0 59444  37902.000000  0   -2462500.161   6339069.361   1095685.259
10 0 59444  38022.000000  0   -2222844.708   6211352.883   1976915.399
10 0 59444  38142.000000  0   -1947552.484   5970528.421   2823331.939
10 0 59444  38262.000000  0   -1643384.220   5620243.673   3620031.907
10 0 59444  38382.000000  0   -1317527.816   5166196.489   4352997.247
10 0 59444  38502.000000  0    -977435.046   4616034.906   5009345.193
10 0 59444  38622.000000  0    -630654.347   3979218.534   5577554.940
10 0 59444  38742.000000  0    -284666.960   3266847.523   6047666.426
10 0 59444  38862.000000  0      53271.128   2491460.596   6411450.712
10 0 59444  38982.000000  0     376278.605   1666808.573   6662547.436
10 0 59444  39102.000000  0     677986.925    807606.736   6796570.640
10 0 59444  39222.000000  0     952664.116    -70729.351   6811179.587
10 0 59444  39342.000000  0    1195322.553   -952359.110   6706117.621
10 0 59444  39462.000000  0    1401809.236  -1821302.400   6483217.178
10 0 59444  39582.000000  0    1568877.158  -2661728.690   6146370.277
10 0 59444  39702.000000  0    1694236.601  -3458246.861   5701465.007
10 0 59444  39822.000000  0    1776585.116  -4196189.964   5156287.383
10 0 59444  39942.000000  0    1815616.496  -4861888.481   4520390.307
10 0 59444  40062.000000  0    1812009.201  -5442930.143   3804932.926
10 0 59444  40182.000000  0    1767393.259  -5928401.505   3022487.610
10 0 59444  40302.000000  0    1684294.891  -6309101.276   2186818.278
10 0 59444  40422.000000  0    1566062.443  -6577722.824   1312636.754
10 0 59444  40542.000000  0    1416774.250  -6729002.494    415339.397
10 0 59444  40662.000000  0    1241129.991  -6759828.327   -489271.183
10 0 59444  40782.000000  0    1044327.616  -6669306.433  -1385275.253
10 0 59444  40902.000000  0     831930.211  -6458778.170  -2256926.152
10 0 59444  41022.000000  0     609726.775  -6131792.857  -3088933.193
10 0 59444  41142.000000  0     383591.433  -5694038.384  -3866734.006
10 0 59444  41262.000000  0     159342.681  -5153230.142  -4576750.769
10 0 59444  41382.000000  0     -57393.491  -4518961.656  -5206623.764
10 0 59444  41502.000000  0    -261312.773  -3802523.005  -5745419.675
10 0 59444  41622.000000  0    -447551.476  -3016690.161  -6183812.106
10 0 59444  41742.000000  0    -611792.732  -2175490.790  -6514231.845
10 0 59444  41862.000000  0    -750358.462  -1293951.285  -6730985.967
10 0 59444  41982.000000  0    -860285.601   -387830.141  -6830346.121
10 0 59444  42102.000000  0    -939385.193    526659.799  -6810605.575
10 0 59444  42222.000000  0    -986283.845   1433134.254  -6672104.179
10 0 59444  42342.000000  0   -1000447.172   2315323.456  -6417223.080
10 0 59444  42462.000000  0    -982184.692   3157356.894  -6050348.888
10 0 59444  42582.000000  0    -932636.233   3944045.432  -5577807.380
10 0 59444  42702.000000  0    -853739.760   4661154.544  -5007764.691
10 0 59444  42822.000000  0    -748181.324   5295665.269  -4350098.072
10 0 59444  42942.000000  0    -619327.960   5836017.988  -3616234.870
10 0 59444  43062.000000  0    -471144.111   6272332.505  -2818962.021
10 0 59444  43182.000000  0    -308093.127   6596600.470  -1972209.188
10 0 59444  43302.000000  0    -135026.249   6802845.156  -1090807.189
10 0 59444  43422.000000  0      42938.817   6887243.442   -190226.437
10 0 59444  43542.000000  0     220547.108   6848206.481    713699.728
10 0 59444  43662.000000  0     392539.832   6686416.127   1605061.673
10 0 59444  43782.000000  0     553787.693   6404814.304   2468163.114
10 0 59444  43902.000000  0     699420.354   6008546.236   3287805.109
10 0 59444  44022.000000  0     824949.851   5504861.472   4049560.110
10 0 59444  44142.000000  0     926386.846   4902975.458   4740031.045
10 0 59444  44262.000000  0    1000341.892   4213888.002   5347092.396
10 0 59444  44382.000000  0    1044113.191   3450170.669   5860097.782
10 0 59444  44502.000000  0    1055758.993   2625730.179   6270062.538
10 0 59444  44622.000000  0    1034150.801   1755548.429   6569815.936
10 0 59444  44742.000000  0     979008.221    855405.567   6754120.831
10 0 59444  44862.000000  0     890914.636    -58408.268   6819758.706
10 0 59444  44982.000000  0     771313.307   -969386.348   6765582.775
10 0 59444  45102.000000  0     622483.653  -1861103.515   6592537.973
10 0 59444  45222.000000  0     447497.993  -2717512.138   6303645.796
10 0 59444  45342.000000  0     250159.524  -3523232.744   5903954.599
10 0 59444  45462.000000  0      34923.113  -4263831.294   5400453.750
10 0 59444  45582.000000  0    -193199.390  -4926079.791   4801958.036
10 0 59444  45702.000000  0    -428748.362  -5498199.744   4118961.716
10 0 59444  45822.000000  0    -665939.553  -5970082.650   3363458.679
10 0 59444  45942.000000  0    -898797.715  -6333478.313   2548732.843
10 0 59444  46062.000000  0   -1121296.288  -6582148.388   1689123.286
10 0 59444  46182.000000  0   -1327501.053  -6711982.797    799768.861
10 0 59444  46302.000000  0   -1511715.584  -6721073.699   -103666.637
10 0 59444  46422.000000  0   -1668621.116  -6609743.276  -1005279.567
10 0 59444  46542.000000  0   -1793408.928  -6380526.931  -1889215.097
10 0 59444  46662.000000  0   -1881902.332  -6038112.693  -2739953.558
10 0 59444  46782.000000  0   -1930665.362  -5589238.089  -3542589.082
10 0 59444  46902.000000  0   -1937094.975  -5042546.628  -4283093.814
10 0 59444  47022.000000  0   -1899494.459  -4408409.194  -4948561.354
10 0 59444  47142.000000  0   -1817127.151  -3698716.595  -5527425.829
10 0 59444  47262.000000  0   -1690249.705  -2926648.338  -6009654.619
10 0 59444  47382.000000  0   -1520124.183  -2106421.871  -6386912.535
10 0 59444  47502.000000  0   -1309008.933  -1253027.554  -6652694.220
10 0 59444  47622.000000  0   -1060129.584   -381955.835  -6802424.977
10 0 59444  47742.000000  0    -777630.491    491079.721  -6833530.623
10 0 59444  47862.000000  0    -466506.153   1350418.924  -6745476.322
10 0 59444  47982.000000  0    -132515.184   2180728.404  -6539774.523
10 0 59444  48102.000000  0     217922.189   2967268.376  -6219962.994
10 0 59444  48222.000000  0     577844.133   3696151.256  -5791551.977
10 0 59444  48342.000000  0     939881.364   4354585.784  -5261937.799
10 0 59444  48462.000000  0    1296402.832   4931103.561  -4640286.899
10 0 59444  48582.000000  0    1639672.055   5415765.822  -3937388.540
10 0 59444  48702.000000  0    1962010.580   5800343.653  -3165476.464
10 0 59444  48822.000000  0    2255964.900   6078468.493  -2338023.290
10 0 59444  48942.000000  0    2514473.802   6245749.805  -1469509.014
10 0 59444  49062.000000  0    2731031.642   6299855.196   -575166.498
10 0 59444  49182.000000  0    2899843.031   6240549.271    329290.544
10 0 59444  49302.000000  0    3015964.858   6069690.159   1227950.229
10 0 59444  49422.000000  0    3075432.130   5791184.836   2104990.089
10 0 59444  49542.000000  0    3075364.263   5410903.360   2944964.089
10 0 59444  49662.000000  0    3014049.390   4936553.630   3733082.530
10 0 59444  49782.000000  0    2891004.946   4377520.675   4455478.460
10 0 59444  49902.000000  0    2707010.573   3744673.534   5099457.033
10 0 59444  50022.000000  0    2464112.968   3050143.890   5653717.436
10 0 59444  50142.000000  0    2165607.076   2307086.885   6108546.260
10 0 59444  50262.000000  0    1815992.108   1529427.177   6455983.798
10 0 59444  50382.000000  0    1420901.734    731593.062   6689957.709
10 0 59444  50502.000000  0     987011.317    -71752.663   6806381.745
10 0 59444  50622.000000  0     521924.594   -865980.728   6803223.397
10 0 59444  50742.000000  0      34040.144  -1636762.176   6680538.307
10 0 59444  50862.000000  0    -467600.491  -2370326.758   6440468.954
10 0 59444  50982.000000  0    -973480.089  -3053709.473   6087208.662
10 0 59444  51102.000000  0   -1473783.915  -3674980.164   5626931.061
10 0 59444  51222.000000  0   -1958587.912  -4223453.873   5067689.400
10 0 59444  51342.000000  0   -2418056.178  -4689880.442   4419283.855
10 0 59444  51462.000000  0   -2842642.894  -5066608.625   3693095.305
10 0 59444  51582.000000  0   -3223292.385  -5347719.550   2901887.044
10 0 59444  51702.000000  0   -3551632.218  -5529125.417   2059579.577
10 0 59444  51822.000000  0   -3820156.330  -5608633.041   1181003.138
10 0 59444  51942.000000  0   -4022393.857  -5585969.692    281631.013
10 0 59444  52062.000000  0   -4153058.833  -5462770.157   -622700.364
10 0 59444  52182.000000  0   -4208176.927  -5242525.368  -1516079.470
10 0 59444  52302.000000  0   -4185185.204  -4930492.553  -2382809.055
10 0 59444  52422.000000  0   -4083002.597  -4533569.858  -3207689.232
99
